start=new Date('2022-07-05T00:00:00.000Z').valueOf();
sats=[{"REV_AT_EPOCH":"4570","MEAN_ANOMALY":"93.0807","SEMIMAJOR_AXIS":"6955.198","OBJECT_NAME":"STARLINK-3071","EPOCH":"2022-07-04T22:47:13.390656","ELEMENT_SET_NO":"999","CLASSIFICATION_TYPE":"U","TLE_LINE2":"2 49147  70.0006  41.8980 0003153 266.9990  93.0807 14.96712889 45701","PERIOD":"96.211","BSTAR":"-0.00015053000000","LAUNCH_DATE":"2021-09-14","COUNTRY_CODE":"US","FILE":"3507746","MEAN_MOTION_DOT":"-0.00001814","CENTER_NAME":"EARTH","MEAN_ELEMENT_THEORY":"SGP4","OBJECT_TYPE":"PAYLOAD","GP_ID":"207417979","EPHEMERIS_TYPE":"0","MEAN_MOTION_DDOT":"0.0000000000000","ECCENTRICITY":"0.00031530","OBJECT_ID":"2021-082T","TLE_LINE1":"1 49147U 21082T   22185.94946054 -.00001814  00000-0 -15053-3 0  9990","MEAN_MOTION":"14.96712889","SITE":"AFWTR","REF_FRAME":"TEME","DECAY_DATE":null,"NORAD_CAT_ID":"49147","TIME_SYSTEM":"UTC","PERIAPSIS":"574.870","RA_OF_ASC_NODE":"41.8980","RCS_SIZE":"LARGE","APOAPSIS":"579.256","ARG_OF_PERICENTER":"266.9990","INCLINATION":"70.0006"},{"COUNTRY_CODE":"US","FILE":"3507746","MEAN_MOTION_DOT":"-0.00000962","LAUNCH_DATE":"2021-09-14","ELEMENT_SET_NO":"999","TLE_LINE2":"2 49148  69.9990  62.2054 0003027 262.5230  97.5584 14.96722500 45194","PERIOD":"96.210","CLASSIFICATION_TYPE":"U","BSTAR":"-0.00007602100000","EPOCH":"2022-07-04T22:20:06.348192","SEMIMAJOR_AXIS":"6955.168","OBJECT_NAME":"STARLINK-3048","REV_AT_EPOCH":"4519","MEAN_ANOMALY":"97.5584","MEAN_MOTION_DDOT":"0.0000000000000","EPHEMERIS_TYPE":"0","GP_ID":"207418728","OBJECT_TYPE":"PAYLOAD","MEAN_ELEMENT_THEORY":"SGP4","CENTER_NAME":"EARTH","REF_FRAME":"TEME","SITE":"AFWTR","MEAN_MOTION":"14.96722500","OBJECT_ID":"2021-082U","TLE_LINE1":"1 49148U 21082U   22185.93062903 -.00000962  00000-0 -76021-4 0  9998","ECCENTRICITY":"0.00030270","INCLINATION":"69.9990","RCS_SIZE":"LARGE","ARG_OF_PERICENTER":"262.5230","APOAPSIS":"579.139","RA_OF_ASC_NODE":"62.2054","PERIAPSIS":"574.928","TIME_SYSTEM":"UTC","NORAD_CAT_ID":"49148","DECAY_DATE":null},{"ECCENTRICITY":"0.00030660","REF_FRAME":"TEME","SITE":"AFWTR","MEAN_MOTION":"14.98328492","TLE_LINE1":"1 49149U 21082V   22185.95318676 -.00002056  00000-0 -16460-3 0  9998","OBJECT_ID":"2021-082V","NORAD_CAT_ID":"49149","DECAY_DATE":null,"INCLINATION":"70.0001","RCS_SIZE":"LARGE","APOAPSIS":"574.193","ARG_OF_PERICENTER":"269.5276","PERIAPSIS":"569.932","RA_OF_ASC_NODE":"82.4822","TIME_SYSTEM":"UTC","EPOCH":"2022-07-04T22:52:35.336064","SEMIMAJOR_AXIS":"6950.198","OBJECT_NAME":"STARLINK-3053","REV_AT_EPOCH":"4589","MEAN_ANOMALY":"90.5532","COUNTRY_CODE":"US","FILE":"3507746","MEAN_MOTION_DOT":"-0.00002056","LAUNCH_DATE":"2021-09-14","ELEMENT_SET_NO":"999","TLE_LINE2":"2 49149  70.0001  82.4822 0003066 269.5276  90.5532 14.98328492 45895","PERIOD":"96.107","CLASSIFICATION_TYPE":"U","BSTAR":"-0.00016460000000","OBJECT_TYPE":"PAYLOAD","MEAN_ELEMENT_THEORY":"SGP4","CENTER_NAME":"EARTH","MEAN_MOTION_DDOT":"0.0000000000000","EPHEMERIS_TYPE":"0","GP_ID":"207418970"},{"ECCENTRICITY":"0.00030380","MEAN_MOTION":"14.98337971","TLE_LINE1":"1 49150U 21082W   22185.94840934 -.00000224  00000-0 -10974-4 0  9996","OBJECT_ID":"2021-082W","REF_FRAME":"TEME","SITE":"AFWTR","DECAY_DATE":null,"NORAD_CAT_ID":"49150","PERIAPSIS":"569.922","RA_OF_ASC_NODE":"82.4976","TIME_SYSTEM":"UTC","INCLINATION":"70.0000","APOAPSIS":"574.145","RCS_SIZE":"LARGE","ARG_OF_PERICENTER":"267.8804","SEMIMAJOR_AXIS":"6950.168","OBJECT_NAME":"STARLINK-3104","REV_AT_EPOCH":"4589","MEAN_ANOMALY":"92.2007","EPOCH":"2022-07-04T22:45:42.566976","LAUNCH_DATE":"2021-09-14","ELEMENT_SET_NO":"999","BSTAR":"-0.00001097400000","TLE_LINE2":"2 49150  70.0000  82.4976 0003038 267.8804  92.2007 14.98337971 45891","PERIOD":"96.106","CLASSIFICATION_TYPE":"U","COUNTRY_CODE":"US","FILE":"3507746","MEAN_MOTION_DOT":"-0.00000224","CENTER_NAME":"EARTH","OBJECT_TYPE":"PAYLOAD","MEAN_ELEMENT_THEORY":"SGP4","EPHEMERIS_TYPE":"0","GP_ID":"207417730","MEAN_MOTION_DDOT":"0.0000000000000"},{"ECCENTRICITY":"0.00025690","REF_FRAME":"TEME","SITE":"AFWTR","MEAN_MOTION":"14.96715143","OBJECT_ID":"2021-082X","TLE_LINE1":"1 49151U 21082X   22185.93192735 -.00001025  00000-0 -81551-4 0  9994","NORAD_CAT_ID":"49151","DECAY_DATE":null,"INCLINATION":"69.9982","RCS_SIZE":"LARGE","ARG_OF_PERICENTER":"264.3645","APOAPSIS":"578.843","RA_OF_ASC_NODE":"41.9615","PERIAPSIS":"575.269","TIME_SYSTEM":"UTC","EPOCH":"2022-07-04T22:21:58.523040","SEMIMAJOR_AXIS":"6955.191","OBJECT_NAME":"STARLINK-3102","REV_AT_EPOCH":"4689","MEAN_ANOMALY":"95.7220","COUNTRY_CODE":"US","FILE":"3507746","MEAN_MOTION_DOT":"-0.00001025","LAUNCH_DATE":"2021-09-14","ELEMENT_SET_NO":"999","TLE_LINE2":"2 49151  69.9982  41.9615 0002569 264.3645  95.7220 14.96715143 46896","PERIOD":"96.211","CLASSIFICATION_TYPE":"U","BSTAR":"-0.00008155100000","OBJECT_TYPE":"PAYLOAD","MEAN_ELEMENT_THEORY":"SGP4","CENTER_NAME":"EARTH","MEAN_MOTION_DDOT":"0.0000000000000","EPHEMERIS_TYPE":"0","GP_ID":"207418479"},{"ECCENTRICITY":"0.00027570","MEAN_MOTION":"14.96718953","TLE_LINE1":"1 49152U 21082Y   22185.90688155 -.00000858  00000-0 -66995-4 0  9996","OBJECT_ID":"2021-082Y","REF_FRAME":"TEME","SITE":"AFWTR","DECAY_DATE":null,"NORAD_CAT_ID":"49152","PERIAPSIS":"575.127","RA_OF_ASC_NODE":"42.0040","TIME_SYSTEM":"UTC","INCLINATION":"69.9991","ARG_OF_PERICENTER":"260.0074","RCS_SIZE":"LARGE","APOAPSIS":"578.962","OBJECT_NAME":"STARLINK-3081","SEMIMAJOR_AXIS":"6955.179","MEAN_ANOMALY":"100.0773","REV_AT_EPOCH":"4681","EPOCH":"2022-07-04T21:45:54.565920","LAUNCH_DATE":"2021-09-14","CLASSIFICATION_TYPE":"U","TLE_LINE2":"2 49152  69.9991  42.0040 0002757 260.0074 100.0773 14.96718953 46816","PERIOD":"96.210","BSTAR":"-0.00006699500000","ELEMENT_SET_NO":"999","FILE":"3507746","MEAN_MOTION_DOT":"-0.00000858","COUNTRY_CODE":"US","CENTER_NAME":"EARTH","OBJECT_TYPE":"PAYLOAD","MEAN_ELEMENT_THEORY":"SGP4","EPHEMERIS_TYPE":"0","GP_ID":"207419228","MEAN_MOTION_DDOT":"0.0000000000000"},{"OBJECT_TYPE":"PAYLOAD","MEAN_ELEMENT_THEORY":"SGP4","CENTER_NAME":"EARTH","MEAN_MOTION_DDOT":"0.0000000000000","EPHEMERIS_TYPE":"0","GP_ID":"207419470","EPOCH":"2022-07-04T22:07:53.676192","OBJECT_NAME":"STARLINK-3072","SEMIMAJOR_AXIS":"6955.203","MEAN_ANOMALY":"88.0838","REV_AT_EPOCH":"4690","MEAN_MOTION_DOT":"-0.00000971","FILE":"3507746","COUNTRY_CODE":"US","LAUNCH_DATE":"2021-09-14","TLE_LINE2":"2 49153  69.9990  41.9898 0002863 271.9992  88.0838 14.96711451 46906","BSTAR":"-0.00007688700000","PERIOD":"96.211","CLASSIFICATION_TYPE":"U","ELEMENT_SET_NO":"999","NORAD_CAT_ID":"49153","DECAY_DATE":null,"INCLINATION":"69.9990","RCS_SIZE":"LARGE","APOAPSIS":"579.059","ARG_OF_PERICENTER":"271.9992","RA_OF_ASC_NODE":"41.9898","PERIAPSIS":"575.076","TIME_SYSTEM":"UTC","ECCENTRICITY":"0.00028630","REF_FRAME":"TEME","SITE":"AFWTR","MEAN_MOTION":"14.96711451","OBJECT_ID":"2021-082Z","TLE_LINE1":"1 49153U 21082Z   22185.92214903 -.00000971  00000-0 -76887-4 0  9992"},{"ECCENTRICITY":"0.00030930","REF_FRAME":"TEME","SITE":"AFWTR","MEAN_MOTION":"14.96710359","TLE_LINE1":"1 49154U 21082AA  22185.92580918 -.00000812  00000-0 -62994-4 0  9993","OBJECT_ID":"2021-082AA","NORAD_CAT_ID":"49154","DECAY_DATE":null,"INCLINATION":"69.9982","ARG_OF_PERICENTER":"262.0817","RCS_SIZE":"LARGE","APOAPSIS":"579.222","PERIAPSIS":"574.920","RA_OF_ASC_NODE":"62.2130","TIME_SYSTEM":"UTC","EPOCH":"2022-07-04T22:13:09.913152","SEMIMAJOR_AXIS":"6955.206","OBJECT_NAME":"STARLINK-3068","REV_AT_EPOCH":"4627","MEAN_ANOMALY":"97.9990","COUNTRY_CODE":"US","MEAN_MOTION_DOT":"-0.00000812","FILE":"3507746","LAUNCH_DATE":"2021-09-14","ELEMENT_SET_NO":"999","TLE_LINE2":"2 49154  69.9982  62.2130 0003093 262.0817  97.9990 14.96710359 46270","PERIOD":"96.211","BSTAR":"-0.00006299400000","CLASSIFICATION_TYPE":"U","OBJECT_TYPE":"PAYLOAD","MEAN_ELEMENT_THEORY":"SGP4","CENTER_NAME":"EARTH","MEAN_MOTION_DDOT":"0.0000000000000","EPHEMERIS_TYPE":"0","GP_ID":"207418230"},{"MEAN_MOTION_DDOT":"0.0000000000000","GP_ID":"207417980","EPHEMERIS_TYPE":"0","MEAN_ELEMENT_THEORY":"SGP4","OBJECT_TYPE":"PAYLOAD","CENTER_NAME":"EARTH","FILE":"3507746","MEAN_MOTION_DOT":"0.00001776","COUNTRY_CODE":"US","TLE_LINE2":"2 49155  69.9965  41.9723 0002848 266.5958  93.4875 14.96754409 46778","CLASSIFICATION_TYPE":"U","PERIOD":"96.208","BSTAR":"0.00016297000000","ELEMENT_SET_NO":"999","LAUNCH_DATE":"2021-09-14","EPOCH":"2022-07-04T21:59:51.022464","MEAN_ANOMALY":"93.4875","REV_AT_EPOCH":"4677","OBJECT_NAME":"STARLINK-3060","SEMIMAJOR_AXIS":"6955.070","RCS_SIZE":"LARGE","APOAPSIS":"578.915","ARG_OF_PERICENTER":"266.5958","INCLINATION":"69.9965","TIME_SYSTEM":"UTC","RA_OF_ASC_NODE":"41.9723","PERIAPSIS":"574.954","NORAD_CAT_ID":"49155","DECAY_DATE":null,"SITE":"AFWTR","REF_FRAME":"TEME","TLE_LINE1":"1 49155U 21082AB  22185.91656276  .00001776  00000-0  16297-3 0  9996","OBJECT_ID":"2021-082AB","MEAN_MOTION":"14.96754409","ECCENTRICITY":"0.00028480"},{"REV_AT_EPOCH":"4677","MEAN_ANOMALY":"87.2826","SEMIMAJOR_AXIS":"6955.190","OBJECT_NAME":"STARLINK-3085","EPOCH":"2022-07-04T21:31:56.110080","ELEMENT_SET_NO":"999","PERIOD":"96.211","TLE_LINE2":"2 49156  70.0003  42.0292 0002532 272.8043  87.2826 14.96715630 46773","BSTAR":"-0.00006859900000","CLASSIFICATION_TYPE":"U","LAUNCH_DATE":"2021-09-14","COUNTRY_CODE":"US","MEAN_MOTION_DOT":"-0.00000877","FILE":"3507746","CENTER_NAME":"EARTH","MEAN_ELEMENT_THEORY":"SGP4","OBJECT_TYPE":"PAYLOAD","GP_ID":"207418729","EPHEMERIS_TYPE":"0","MEAN_MOTION_DDOT":"0.0000000000000","ECCENTRICITY":"0.00025320","OBJECT_ID":"2021-082AC","TLE_LINE1":"1 49156U 21082AC  22185.89717720 -.00000877  00000-0 -68599-4 0  9992","MEAN_MOTION":"14.96715630","SITE":"AFWTR","REF_FRAME":"TEME","DECAY_DATE":null,"NORAD_CAT_ID":"49156","TIME_SYSTEM":"UTC","RA_OF_ASC_NODE":"42.0292","PERIAPSIS":"575.294","ARG_OF_PERICENTER":"272.8043","RCS_SIZE":"LARGE","APOAPSIS":"578.816","INCLINATION":"70.0003"}];
